STARLINK-36383          
1 67922U 26036U   26071.85502549  .00165048  00000+0  76872-3 0  9993
2 67922  42.9988 230.2172 0001451 278.6309  81.4398 15.82093430  4171
STARLINK-36406          
1 67923U 26036V   26071.91668981 -.01885285  00000+0 -25084-1 0  9996
2 67923  42.9992 230.3222 0001382 282.6674 235.6135 15.60572657  4167
STARLINK-36714          
1 67924U 26036W   26071.91668981 -.01848216  00000+0 -14202-1 0  9990
2 67924  42.9991 229.8830 0001784 279.9666  55.1193 15.74345330  4161
STARLINK-36726          
1 67925U 26036X   26071.91668981 -.01895173  00000+0 -21342-1 0  9998
2 67925  42.9994 230.1265 0001445 274.5618 322.5794 15.64805059  4160
STARLINK-36758          
1 67926U 26036Y   26071.91668981 -.01849204  00000+0 -15877-1 0  9999
2 67926  42.9991 229.9100 0001731 277.2406  46.7599 15.71792400  4166
STARLINK-36728          
1 67927U 26036Z   26071.91668981 -.01851344  00000+0 -13690-1 0  9999
2 67927  42.9992 229.8260 0001700 278.8300  78.7789 15.75222671  4168
STARLINK-36771          
1 67928U 26036AA  26071.91668981 -.01850926  00000+0 -14785-1 0  9991
2 67928  42.9994 229.8653 0001727 276.2090  65.5421 15.73464538  4169
STARLINK-36809          
1 67929U 26036AB  26071.91668981 -.01851067  00000+0 -14770-1 0  9993
2 67929  42.9993 229.8432 0001712 279.0668  71.4061 15.73489606  4169
STARLINK-36865          
1 67930U 26036AC  26071.91256332  .00327719  00000+0  17148-2 0  9990
2 67930  42.9984 229.7836 0005923 324.3838  35.6637 15.79098656  4189
STARLINK-36781          
1 67931U 26036AD  26071.91367291 -.00700534  00000+0 -43285-2 0  9991
2 67931  42.9983 229.7924 0002683 286.8526  73.2050 15.78025933  4187
STARLINK-36301          
1 67932U 26037A   26071.73560150  .00305506  00000+0  13957-2 0  9993
2 67932  42.9976 179.9105 0001544 274.0317  86.0378 15.82124473  3738
STARLINK-36852          
1 67933U 26037B   26071.73485245  .00312157  00000+0  14249-2 0  9990
2 67933  42.9979 179.9043 0001483 255.8157 104.2550 15.82125273  3738
STARLINK-36861          
1 67934U 26037C   26071.73411401  .00264430  00000+0  12175-2 0  9990
2 67934  42.9981 179.8980 0001586 286.5939  73.4758 15.82066840  3735
STARLINK-36860          
1 67935U 26037D   26071.67021968  .00312717  00000+0  14270-2 0  9999
2 67935  42.9973 180.2793 0001712 291.6951  68.3738 15.82129669  3726
STARLINK-36848          
1 67936U 26037E   26071.66872069  .00282109  00000+0  12924-2 0  9990
2 67936  42.9974 180.2660 0001714 280.3737  79.6942 15.82125768  3728
STARLINK-36370          
1 67937U 26037F   26071.66947069  .00303708  00000+0  13877-2 0  9991
2 67937  42.9975 180.2734 0001556 281.7452  78.3245 15.82125414  3725
