[{"OBJECT_NAME":"STARLINK-36383","OBJECT_ID":"2026-036U","EPOCH":"2026-03-12T20:31:14.202336","MEAN_MOTION":15.8209343,"ECCENTRICITY":0.00014515,"INCLINATION":42.9988,"RA_OF_ASC_NODE":230.2172,"ARG_OF_PERICENTER":278.6309,"MEAN_ANOMALY":81.4398,"EPHEMERIS_TYPE":0,"CLASSIFICATION_TYPE":"U","NORAD_CAT_ID":67922,"ELEMENT_SET_NO":999,"REV_AT_EPOCH":417,"BSTAR":0.00076871567,"MEAN_MOTION_DOT":0.00165048,"MEAN_MOTION_DDOT":0},{"OBJECT_NAME":"STARLINK-36406","OBJECT_ID":"2026-036V","EPOCH":"2026-03-12T22:00:01.999584","MEAN_MOTION":15.60572657,"ECCENTRICITY":0.00013821,"INCLINATION":42.9992,"RA_OF_ASC_NODE":230.3222,"ARG_OF_PERICENTER":282.6674,"MEAN_ANOMALY":235.6135,"EPHEMERIS_TYPE":0,"CLASSIFICATION_TYPE":"U","NORAD_CAT_ID":67923,"ELEMENT_SET_NO":999,"REV_AT_EPOCH":416,"BSTAR":-0.025084405,"MEAN_MOTION_DOT":-0.01885285,"MEAN_MOTION_DDOT":0},{"OBJECT_NAME":"STARLINK-36714","OBJECT_ID":"2026-036W","EPOCH":"2026-03-12T22:00:01.999584","MEAN_MOTION":15.7434533,"ECCENTRICITY":0.00017847,"INCLINATION":42.9991,"RA_OF_ASC_NODE":229.883,"ARG_OF_PERICENTER":279.9666,"MEAN_ANOMALY":55.1193,"EPHEMERIS_TYPE":0,"CLASSIFICATION_TYPE":"U","NORAD_CAT_ID":67924,"ELEMENT_SET_NO":999,"REV_AT_EPOCH":416,"BSTAR":-0.014201725,"MEAN_MOTION_DOT":-0.01848216,"MEAN_MOTION_DDOT":0},{"OBJECT_NAME":"STARLINK-36726","OBJECT_ID":"2026-036X","EPOCH":"2026-03-12T22:00:01.999584","MEAN_MOTION":15.64805059,"ECCENTRICITY":0.00014452,"INCLINATION":42.9994,"RA_OF_ASC_NODE":230.1265,"ARG_OF_PERICENTER":274.5618,"MEAN_ANOMALY":322.5794,"EPHEMERIS_TYPE":0,"CLASSIFICATION_TYPE":"U","NORAD_CAT_ID":67925,"ELEMENT_SET_NO":999,"REV_AT_EPOCH":416,"BSTAR":-0.021341592,"MEAN_MOTION_DOT":-0.01895173,"MEAN_MOTION_DDOT":0},{"OBJECT_NAME":"STARLINK-36758","OBJECT_ID":"2026-036Y","EPOCH":"2026-03-12T22:00:01.999584","MEAN_MOTION":15.717924,"ECCENTRICITY":0.00017317,"INCLINATION":42.9991,"RA_OF_ASC_NODE":229.91,"ARG_OF_PERICENTER":277.2406,"MEAN_ANOMALY":46.7599,"EPHEMERIS_TYPE":0,"CLASSIFICATION_TYPE":"U","NORAD_CAT_ID":67926,"ELEMENT_SET_NO":999,"REV_AT_EPOCH":416,"BSTAR":-0.015876998,"MEAN_MOTION_DOT":-0.01849204,"MEAN_MOTION_DDOT":0},{"OBJECT_NAME":"STARLINK-36728","OBJECT_ID":"2026-036Z","EPOCH":"2026-03-12T22:00:01.999584","MEAN_MOTION":15.75222671,"ECCENTRICITY":0.00017005,"INCLINATION":42.9992,"RA_OF_ASC_NODE":229.826,"ARG_OF_PERICENTER":278.83,"MEAN_ANOMALY":78.7789,"EPHEMERIS_TYPE":0,"CLASSIFICATION_TYPE":"U","NORAD_CAT_ID":67927,"ELEMENT_SET_NO":999,"REV_AT_EPOCH":416,"BSTAR":-0.013689667,"MEAN_MOTION_DOT":-0.01851344,"MEAN_MOTION_DDOT":0},{"OBJECT_NAME":"STARLINK-36771","OBJECT_ID":"2026-036AA","EPOCH":"2026-03-12T22:00:01.999584","MEAN_MOTION":15.73464538,"ECCENTRICITY":0.00017279,"INCLINATION":42.9994,"RA_OF_ASC_NODE":229.8653,"ARG_OF_PERICENTER":276.209,"MEAN_ANOMALY":65.5421,"EPHEMERIS_TYPE":0,"CLASSIFICATION_TYPE":"U","NORAD_CAT_ID":67928,"ELEMENT_SET_NO":999,"REV_AT_EPOCH":416,"BSTAR":-0.014785201,"MEAN_MOTION_DOT":-0.01850926,"MEAN_MOTION_DDOT":0},{"OBJECT_NAME":"STARLINK-36809","OBJECT_ID":"2026-036AB","EPOCH":"2026-03-12T22:00:01.999584","MEAN_MOTION":15.73489606,"ECCENTRICITY":0.00017129,"INCLINATION":42.9993,"RA_OF_ASC_NODE":229.8432,"ARG_OF_PERICENTER":279.0668,"MEAN_ANOMALY":71.4061,"EPHEMERIS_TYPE":0,"CLASSIFICATION_TYPE":"U","NORAD_CAT_ID":67929,"ELEMENT_SET_NO":999,"REV_AT_EPOCH":416,"BSTAR":-0.014770464,"MEAN_MOTION_DOT":-0.01851067,"MEAN_MOTION_DDOT":0},{"OBJECT_NAME":"STARLINK-36865","OBJECT_ID":"2026-036AC","EPOCH":"2026-03-12T21:54:05.470848","MEAN_MOTION":15.79098656,"ECCENTRICITY":0.00059233,"INCLINATION":42.9984,"RA_OF_ASC_NODE":229.7836,"ARG_OF_PERICENTER":324.3838,"MEAN_ANOMALY":35.6637,"EPHEMERIS_TYPE":0,"CLASSIFICATION_TYPE":"U","NORAD_CAT_ID":67930,"ELEMENT_SET_NO":999,"REV_AT_EPOCH":418,"BSTAR":0.0017148297,"MEAN_MOTION_DOT":0.00327719,"MEAN_MOTION_DDOT":0},{"OBJECT_NAME":"STARLINK-36781","OBJECT_ID":"2026-036AD","EPOCH":"2026-03-12T21:55:41.339424","MEAN_MOTION":15.78025933,"ECCENTRICITY":0.00026832,"INCLINATION":42.9983,"RA_OF_ASC_NODE":229.7924,"ARG_OF_PERICENTER":286.8526,"MEAN_ANOMALY":73.205,"EPHEMERIS_TYPE":0,"CLASSIFICATION_TYPE":"U","NORAD_CAT_ID":67931,"ELEMENT_SET_NO":999,"REV_AT_EPOCH":418,"BSTAR":-0.0043285165,"MEAN_MOTION_DOT":-0.00700534,"MEAN_MOTION_DDOT":0},{"OBJECT_NAME":"STARLINK-36301","OBJECT_ID":"2026-037A","EPOCH":"2026-03-12T17:39:15.969600","MEAN_MOTION":15.82124473,"ECCENTRICITY":0.00015441,"INCLINATION":42.9976,"RA_OF_ASC_NODE":179.9105,"ARG_OF_PERICENTER":274.0317,"MEAN_ANOMALY":86.0378,"EPHEMERIS_TYPE":0,"CLASSIFICATION_TYPE":"U","NORAD_CAT_ID":67932,"ELEMENT_SET_NO":999,"REV_AT_EPOCH":373,"BSTAR":0.0013957005,"MEAN_MOTION_DOT":0.00305506,"MEAN_MOTION_DDOT":0},{"OBJECT_NAME":"STARLINK-36852","OBJECT_ID":"2026-037B","EPOCH":"2026-03-12T17:38:11.251680","MEAN_MOTION":15.82125273,"ECCENTRICITY":0.0001483,"INCLINATION":42.9979,"RA_OF_ASC_NODE":179.9043,"ARG_OF_PERICENTER":255.8157,"MEAN_ANOMALY":104.255,"EPHEMERIS_TYPE":0,"CLASSIFICATION_TYPE":"U","NORAD_CAT_ID":67933,"ELEMENT_SET_NO":999,"REV_AT_EPOCH":373,"BSTAR":0.0014248754,"MEAN_MOTION_DOT":0.00312157,"MEAN_MOTION_DDOT":0},{"OBJECT_NAME":"STARLINK-36861","OBJECT_ID":"2026-037C","EPOCH":"2026-03-12T17:37:07.450464","MEAN_MOTION":15.8206684,"ECCENTRICITY":0.00015864,"INCLINATION":42.9981,"RA_OF_ASC_NODE":179.898,"ARG_OF_PERICENTER":286.5939,"MEAN_ANOMALY":73.4758,"EPHEMERIS_TYPE":0,"CLASSIFICATION_TYPE":"U","NORAD_CAT_ID":67934,"ELEMENT_SET_NO":999,"REV_AT_EPOCH":373,"BSTAR":0.0012174547,"MEAN_MOTION_DOT":0.0026443,"MEAN_MOTION_DDOT":0},{"OBJECT_NAME":"STARLINK-36860","OBJECT_ID":"2026-037D","EPOCH":"2026-03-12T16:05:06.980352","MEAN_MOTION":15.82129669,"ECCENTRICITY":0.00017128,"INCLINATION":42.9973,"RA_OF_ASC_NODE":180.2793,"ARG_OF_PERICENTER":291.6951,"MEAN_ANOMALY":68.3738,"EPHEMERIS_TYPE":0,"CLASSIFICATION_TYPE":"U","NORAD_CAT_ID":67935,"ELEMENT_SET_NO":999,"REV_AT_EPOCH":372,"BSTAR":0.0014270378,"MEAN_MOTION_DOT":0.00312717,"MEAN_MOTION_DDOT":0},{"OBJECT_NAME":"STARLINK-36848","OBJECT_ID":"2026-037E","EPOCH":"2026-03-12T16:02:57.467616","MEAN_MOTION":15.82125768,"ECCENTRICITY":0.00017149,"INCLINATION":42.9974,"RA_OF_ASC_NODE":180.266,"ARG_OF_PERICENTER":280.3737,"MEAN_ANOMALY":79.6942,"EPHEMERIS_TYPE":0,"CLASSIFICATION_TYPE":"U","NORAD_CAT_ID":67936,"ELEMENT_SET_NO":999,"REV_AT_EPOCH":372,"BSTAR":0.0012924473,"MEAN_MOTION_DOT":0.00282109,"MEAN_MOTION_DDOT":0},{"OBJECT_NAME":"STARLINK-36370","OBJECT_ID":"2026-037F","EPOCH":"2026-03-12T16:04:02.267616","MEAN_MOTION":15.82125414,"ECCENTRICITY":0.00015565,"INCLINATION":42.9975,"RA_OF_ASC_NODE":180.2734,"ARG_OF_PERICENTER":281.7452,"MEAN_ANOMALY":78.3245,"EPHEMERIS_TYPE":0,"CLASSIFICATION_TYPE":"U","NORAD_CAT_ID":67937,"ELEMENT_SET_NO":999,"REV_AT_EPOCH":372,"BSTAR":0.0013877337,"MEAN_MOTION_DOT":0.00303708,"MEAN_MOTION_DDOT":0}]
